{"type": "FeatureCollection", "features": [ {"type": "Feature", "properties": {"norad_id": 29930, "name": "FENGYUN 1C DEB", "group": "fengyun-1c-debris", "lat": 67.30040507306738, "lon": 85.08398861891571, "alt_km": 825.3324114087736, "timestamp": "2025-12-26T03:50:12.365568+00:00", "meta": {"OBJECT_NAME": "FENGYUN 1C DEB", "OBJECT_ID": "1999-025JC", "EPOCH": "2025-12-25T15:45:18.808416", "MEAN_MOTION": 14.20832757, "ECCENTRICITY": 0.0164199, "INCLINATION": 99.0438, "RA_OF_ASC_NODE": 242.1884, "ARG_OF_PERICENTER": 16.8127, "MEAN_ANOMALY": 38.7399, "EPHEMERIS_TYPE": 0, "CLASSIFICATION_TYPE": "U", "NORAD_CAT_ID": 29930, "ELEMENT_SET_NO": 999, "REV_AT_EPOCH": 98074, "BSTAR": 0.00027322, "MEAN_MOTION_DOT": 6.29e-06, "MEAN_MOTION_DDOT": 0}, "tle": {"line1": "1 29930U 99025JC  25359.65646769  .00000629  00000+0  27322-3 0  9996", "line2": "2 29930  99.0438 242.1884 0164199  16.8127  38.7399 14.20832757980748"}}, "geometry": {"type": "Point", "coordinates": [85.08398861891571, 67.30040507306738]}}, {"type": "Feature", "properties": {"norad_id": 29931, "name": "FENGYUN 1C DEB", "group": "fengyun-1c-debris", "lat": 13.307731294273104, "lon": 33.01398634659399, "alt_km": 864.2235130913305, "timestamp": "2025-12-26T03:50:12.365578+00:00", "meta": {"OBJECT_NAME": "FENGYUN 1C DEB", "OBJECT_ID": "1999-025JD", "EPOCH": "2025-12-25T16:23:00.598848", "MEAN_MOTION": 14.0390533, "ECCENTRICITY": 0.0032438, "INCLINATION": 98.8589, "RA_OF_ASC_NODE": 34.663, "ARG_OF_PERICENTER": 58.5368, "MEAN_ANOMALY": 64.7385, "EPHEMERIS_TYPE": 0, "CLASSIFICATION_TYPE": "U", "NORAD_CAT_ID": 29931, "ELEMENT_SET_NO": 999, "REV_AT_EPOCH": 96994, "BSTAR": 0.00015936, "MEAN_MOTION_DOT": 2.1e-06, "MEAN_MOTION_DDOT": 0}, "tle": {"line1": "1 29931U 99025JD  25359.68264582  .00000210  00000+0  15936-3 0  9993", "line2": "2 29931  98.8589  34.6630 0032438  58.5368  64.7385 14.03905330969948"}}, "geometry": {"type": "Point", "coordinates": [33.01398634659399, 13.307731294273104]}}, {"type": "Feature", "properties": {"norad_id": 29932, "name": "FENGYUN 1C DEB", "group": "fengyun-1c-debris", "lat": 6.651327906081608, "lon": 9.43342462814632, "alt_km": 813.4296219198468, "timestamp": "2025-12-26T03:50:12.365588+00:00", "meta": {"OBJECT_NAME": "FENGYUN 1C DEB", "OBJECT_ID": "1999-025JE", "EPOCH": "2025-12-24T11:51:16.194816", "MEAN_MOTION": 14.16776397, "ECCENTRICITY": 0.00381812, "INCLINATION": 98.6339, "RA_OF_ASC_NODE": 8.832, "ARG_OF_PERICENTER": 37.3257, "MEAN_ANOMALY": 117.5952, "EPHEMERIS_TYPE": 0, "CLASSIFICATION_TYPE": "U", "NORAD_CAT_ID": 29932, "ELEMENT_SET_NO": 999, "REV_AT_EPOCH": 97750, "BSTAR": 0.00027186686, "MEAN_MOTION_DOT": 5.05e-06, "MEAN_MOTION_DDOT": 0}, "tle": {"line1": "1 29932U 99025JE  25358.49393744  .00000505  00000+0  27187-3 0  9993", "line2": "2 29932  98.6339   8.8320 0038181  37.3257 117.5952 14.16776397977503"}}, "geometry": {"type": "Point", "coordinates": [9.43342462814632, 6.651327906081608]}}, {"type": "Feature", "properties": {"norad_id": 29933, "name": "FENGYUN 1C DEB", "group": "fengyun-1c-debris", "lat": -52.946428991674715, "lon": 116.00133817122276, "alt_km": 676.0945109879594, "timestamp": "2025-12-26T03:50:12.365599+00:00", "meta": {"OBJECT_NAME": "FENGYUN 1C DEB", "OBJECT_ID": "1999-025JF", "EPOCH": "2025-12-25T13:55:00.907104", "MEAN_MOTION": 14.66302511, "ECCENTRICITY": 0.0005733, "INCLINATION": 98.7481, "RA_OF_ASC_NODE": 103.6158, "ARG_OF_PERICENTER": 284.0307, "MEAN_ANOMALY": 202.3381, "EPHEMERIS_TYPE": 0, "CLASSIFICATION_TYPE": "U", "NORAD_CAT_ID": 29933, "ELEMENT_SET_NO": 999, "REV_AT_EPOCH": 98693, "BSTAR": 0.0034453, "MEAN_MOTION_DOT": 0.00019006, "MEAN_MOTION_DDOT": 0}, "tle": {"line1": "1 29933U 99025JF  25359.57987161  .00019006  00000+0  34453-2 0  9995", "line2": "2 29933  98.7481 103.6158 0005733 284.0307 202.3381 14.66302511986934"}}, "geometry": {"type": "Point", "coordinates": [116.00133817122276, -52.946428991674715]}}, {"type": "Feature", "properties": {"norad_id": 29934, "name": "FENGYUN 1C DEB", "group": "fengyun-1c-debris", "lat": 52.432653699324376, "lon": -120.14182834236459, "alt_km": 667.7786204913036, "timestamp": "2025-12-26T03:50:12.365610+00:00", "meta": {"OBJECT_NAME": "FENGYUN 1C DEB", "OBJECT_ID": "1999-025JG", "EPOCH": "2025-12-25T17:24:36.038304", "MEAN_MOTION": 14.63904799, "ECCENTRICITY": 0.0101157, "INCLINATION": 98.9023, "RA_OF_ASC_NODE": 47.6314, "ARG_OF_PERICENTER": 212.1569, "MEAN_ANOMALY": 147.3436, "EPHEMERIS_TYPE": 0, "CLASSIFICATION_TYPE": "U", "NORAD_CAT_ID": 29934, "ELEMENT_SET_NO": 999, "REV_AT_EPOCH": 99962, "BSTAR": 0.00088962, "MEAN_MOTION_DOT": 4.953e-05, "MEAN_MOTION_DDOT": 0}, "tle": {"line1": "1 29934U 99025JG  25359.72541711  .00004953  00000+0  88962-3 0  9990", "line2": "2 29934  98.9023  47.6314 0101157 212.1569 147.3436 14.63904799999621"}}, "geometry": {"type": "Point", "coordinates": [-120.14182834236459, 52.432653699324376]}}, {"type": "Feature", "properties": {"norad_id": 29935, "name": "FENGYUN 1C DEB", "group": "fengyun-1c-debris", "lat": 17.86773279909786, "lon": 58.906207802921834, "alt_km": 946.9649397435387, "timestamp": "2025-12-26T03:50:12.365620+00:00", "meta": {"OBJECT_NAME": "FENGYUN 1C DEB", "OBJECT_ID": "1999-025JH", "EPOCH": "2025-12-25T18:06:56.522304", "MEAN_MOTION": 14.14245684, "ECCENTRICITY": 0.0150859, "INCLINATION": 98.4597, "RA_OF_ASC_NODE": 61.2724, "ARG_OF_PERICENTER": 178.6569, "MEAN_ANOMALY": 299.1065, "EPHEMERIS_TYPE": 0, "CLASSIFICATION_TYPE": "U", "NORAD_CAT_ID": 29935, "ELEMENT_SET_NO": 999, "REV_AT_EPOCH": 97726, "BSTAR": 0.00013732, "MEAN_MOTION_DOT": 2.52e-06, "MEAN_MOTION_DDOT": 0}, "tle": {"line1": "1 29935U 99025JH  25359.75482086  .00000252  00000+0  13732-3 0  9994", "line2": "2 29935  98.4597  61.2724 0150859 178.6569 299.1065 14.14245684977266"}}, "geometry": {"type": "Point", "coordinates": [58.906207802921834, 17.86773279909786]}}, {"type": "Feature", "properties": {"norad_id": 29936, "name": "FENGYUN 1C DEB", "group": "fengyun-1c-debris", "lat": -5.5441576034028035, "lon": 114.43279474706353, "alt_km": 850.4021903895755, "timestamp": "2025-12-26T03:50:12.365630+00:00", "meta": {"OBJECT_NAME": "FENGYUN 1C DEB", "OBJECT_ID": "1999-025JJ", "EPOCH": "2025-12-25T19:29:52.822752", "MEAN_MOTION": 14.35327548, "ECCENTRICITY": 0.0114591, "INCLINATION": 98.6563, "RA_OF_ASC_NODE": 113.237, "ARG_OF_PERICENTER": 148.4626, "MEAN_ANOMALY": 212.3494, "EPHEMERIS_TYPE": 0, "CLASSIFICATION_TYPE": "U", "NORAD_CAT_ID": 29936, "ELEMENT_SET_NO": 999, "REV_AT_EPOCH": 99118, "BSTAR": 0.00018742, "MEAN_MOTION_DOT": 5.32e-06, "MEAN_MOTION_DDOT": 0}, "tle": {"line1": "1 29936U 99025JJ  25359.81241693  .00000532  00000+0  18742-3 0  9996", "line2": "2 29936  98.6563 113.2370 0114591 148.4626 212.3494 14.35327548991182"}}, "geometry": {"type": "Point", "coordinates": [114.43279474706353, -5.5441576034028035]}}, {"type": "Feature", "properties": {"norad_id": 29937, "name": "FENGYUN 1C DEB", "group": "fengyun-1c-debris", "lat": 41.361087844748674, "lon": 12.921021077674396, "alt_km": 863.0999003638608, "timestamp": "2025-12-26T03:50:12.365641+00:00", "meta": {"OBJECT_NAME": "FENGYUN 1C DEB", "OBJECT_ID": "1999-025JK", "EPOCH": "2025-12-25T00:31:53.860224", "MEAN_MOTION": 14.0436019, "ECCENTRICITY": 0.0031758, "INCLINATION": 98.8015, "RA_OF_ASC_NODE": 19.6584, "ARG_OF_PERICENTER": 347.2059, "MEAN_ANOMALY": 65.7796, "EPHEMERIS_TYPE": 0, "CLASSIFICATION_TYPE": "U", "NORAD_CAT_ID": 29937, "ELEMENT_SET_NO": 999, "REV_AT_EPOCH": 97108, "BSTAR": 1.211088e-05, "MEAN_MOTION_DOT": -2.3e-07, "MEAN_MOTION_DDOT": 0}, "tle": {"line1": "1 29937U 99025JK  25359.02215116 -.00000023  00000+0  12111-4 0  9992", "line2": "2 29937  98.8015  19.6584 0031758 347.2059  65.7796 14.04360190971083"}}, "geometry": {"type": "Point", "coordinates": [12.921021077674396, 41.361087844748674]}}, {"type": "Feature", "properties": {"norad_id": 29938, "name": "FENGYUN 1C DEB", "group": "fengyun-1c-debris", "lat": 61.641341114064936, "lon": -173.48893020529746, "alt_km": 883.4171587663704, "timestamp": "2025-12-26T03:50:12.365651+00:00", "meta": {"OBJECT_NAME": "FENGYUN 1C DEB", "OBJECT_ID": "1999-025JL", "EPOCH": "2025-12-25T14:11:02.029344", "MEAN_MOTION": 14.07465056, "ECCENTRICITY": 0.0032586, "INCLINATION": 98.8032, "RA_OF_ASC_NODE": 349.2729, "ARG_OF_PERICENTER": 273.6561, "MEAN_ANOMALY": 202.7275, "EPHEMERIS_TYPE": 0, "CLASSIFICATION_TYPE": "U", "NORAD_CAT_ID": 29938, "ELEMENT_SET_NO": 999, "REV_AT_EPOCH": 97237, "BSTAR": 0.00014797, "MEAN_MOTION_DOT": 2.07e-06, "MEAN_MOTION_DDOT": 0}, "tle": {"line1": "1 29938U 99025JL  25359.59099571  .00000207  00000+0  14797-3 0  9994", "line2": "2 29938  98.8032 349.2729 0032586 273.6561 202.7275 14.07465056972374"}}, "geometry": {"type": "Point", "coordinates": [-173.48893020529746, 61.641341114064936]}}, {"type": "Feature", "properties": {"norad_id": 29939, "name": "FENGYUN 1C DEB", "group": "fengyun-1c-debris", "lat": -29.499322302906208, "lon": 4.339348417499696, "alt_km": 889.6149809163535, "timestamp": "2025-12-26T03:50:12.365662+00:00", "meta": {"OBJECT_NAME": "FENGYUN 1C DEB", "OBJECT_ID": "1999-025JM", "EPOCH": "2025-12-25T20:02:33.255168", "MEAN_MOTION": 14.12087473, "ECCENTRICITY": 0.0067299, "INCLINATION": 98.7102, "RA_OF_ASC_NODE": 359.0483, "ARG_OF_PERICENTER": 101.8174, "MEAN_ANOMALY": 19.0074, "EPHEMERIS_TYPE": 0, "CLASSIFICATION_TYPE": "U", "NORAD_CAT_ID": 29939, "ELEMENT_SET_NO": 999, "REV_AT_EPOCH": 97645, "BSTAR": 4.9283e-05, "MEAN_MOTION_DOT": 5e-07, "MEAN_MOTION_DDOT": 0}, "tle": {"line1": "1 29939U 99025JM  25359.83510712  .00000050  00000+0  49283-4 0  9992", "line2": "2 29939  98.7102 359.0483 0067299 101.8174  19.0074 14.12087473976457"}}, "geometry": {"type": "Point", "coordinates": [4.339348417499696, -29.499322302906208]}}]}